ONEWEB-0321             
1 49191U 21083F   26095.24713677  .00000085  00000+0  17650-3 0  9991
2 49191  87.9139 288.9982 0001993  84.9030 275.2330 13.20772423227201
ONEWEB-0322             
1 49192U 21083G   26095.17726200  .00000220  00000+0  56818-3 0  9990
2 49192  87.8988 334.7768 0002178  84.4461 275.6917 13.13470319221338
ONEWEB-0324             
1 49193U 21083H   26095.21845536  .00000074  00000+0  15556-3 0  9991
2 49193  87.9235 349.9523 0001734  74.7628 285.3695 13.18688528220389
ONEWEB-0325             
1 49194U 21083J   26095.22175387 -.00000217  00000+0 -58343-3 0  9995
2 49194  87.9227 349.9667 0001761  80.8560 279.2771 13.18686660220396
ONEWEB-0326             
1 49195U 21083K   26095.23674788  .00000068  00000+0  13851-3 0  9993
2 49195  87.9238 349.9554 0001491  85.9734 274.1569 13.18689054220381
ONEWEB-0327             
1 49196U 21083L   26095.23647133  .00000056  00000+0  10875-3 0  9998
2 49196  87.9231 349.9655 0001525  93.6918 266.4389 13.18687070220408
ONEWEB-0328             
1 49197U 21083M   26095.16710199 -.00000004  00000+0 -47000-4 0  9990
2 49197  87.9009 334.7428 0001692  76.5587 283.5731 13.13470603221318
ONEWEB-0331             
1 49198U 21083N   26095.23000395  .00000102  00000+0  22706-3 0  9991
2 49198  87.9236 349.9501 0001387  79.1959 280.9330 13.18685499220393
ONEWEB-0333             
1 49199U 21083P   26095.16202193 -.00000142  00000+0 -42424-3 0  9999
2 49199  87.8989 334.7778 0001739  83.0069 277.1258 13.13470388221328
ONEWEB-0334             
1 49200U 21083Q   26095.26450515  .00000043  00000+0  73973-4 0  9998
2 49200  87.9129 289.0103 0002728  90.6405 269.5041 13.20772759227167
ONEWEB-0335             
1 49201U 21083R   26095.15693453 -.00000424  00000+0 -11964-2 0  9992
2 49201  87.8998 334.7743 0001534  81.9878 278.1426 13.13470259221338
ONEWEB-0336             
1 49202U 21083S   26095.12816343  .00000193  00000+0  49383-3 0  9993
2 49202  87.8995 334.7767 0001314  77.1073 283.0203 13.13468527221324
ONEWEB-0337             
1 49203U 21083T   26095.13818956 -.00000073  00000+0 -23413-3 0  9992
2 49203  87.8990 334.7826 0001584  75.8382 284.2923 13.13471354221327
ONEWEB-0338             
1 49204U 21083U   26095.08773735  .00000068  00000+0  13433-3 0  9995
2 49204  87.9130 289.0507 0002093  90.1825 269.9548 13.20772625227165
ONEWEB-0339             
1 49205U 21083V   26095.22295459 -.00000196  00000+0 -57184-3 0  9999
2 49205  87.9000 334.7560 0002014  78.6203 281.5152 13.13468729221314
ONEWEB-0340             
1 49206U 21083W   26095.21680454  .00000183  00000+0  43083-3 0  9999
2 49206  87.9236 349.9582 0001671  80.6538 279.4783 13.18689134220359
