[{"OBJECT_NAME":"ONEWEB-0321","OBJECT_ID":"2021-083F","EPOCH":"2026-04-05T05:55:52.616928","MEAN_MOTION":13.20772423,"ECCENTRICITY":0.0001993,"INCLINATION":87.9139,"RA_OF_ASC_NODE":288.9982,"ARG_OF_PERICENTER":84.903,"MEAN_ANOMALY":275.233,"EPHEMERIS_TYPE":0,"CLASSIFICATION_TYPE":"U","NORAD_CAT_ID":49191,"ELEMENT_SET_NO":999,"REV_AT_EPOCH":22720,"BSTAR":0.00017649999999999998,"MEAN_MOTION_DOT":8.5e-07,"MEAN_MOTION_DDOT":0.0},{"OBJECT_NAME":"ONEWEB-0322","OBJECT_ID":"2021-083G","EPOCH":"2026-04-05T04:15:15.436800","MEAN_MOTION":13.13470319,"ECCENTRICITY":0.0002178,"INCLINATION":87.8988,"RA_OF_ASC_NODE":334.7768,"ARG_OF_PERICENTER":84.4461,"MEAN_ANOMALY":275.6917,"EPHEMERIS_TYPE":0,"CLASSIFICATION_TYPE":"U","NORAD_CAT_ID":49192,"ELEMENT_SET_NO":999,"REV_AT_EPOCH":22133,"BSTAR":0.00056818,"MEAN_MOTION_DOT":2.2e-06,"MEAN_MOTION_DDOT":0.0},{"OBJECT_NAME":"ONEWEB-0324","OBJECT_ID":"2021-083H","EPOCH":"2026-04-05T05:14:34.543104","MEAN_MOTION":13.18688528,"ECCENTRICITY":0.0001734,"INCLINATION":87.9235,"RA_OF_ASC_NODE":349.9523,"ARG_OF_PERICENTER":74.7628,"MEAN_ANOMALY":285.3695,"EPHEMERIS_TYPE":0,"CLASSIFICATION_TYPE":"U","NORAD_CAT_ID":49193,"ELEMENT_SET_NO":999,"REV_AT_EPOCH":22038,"BSTAR":0.00015556,"MEAN_MOTION_DOT":7.4e-07,"MEAN_MOTION_DDOT":0.0},{"OBJECT_NAME":"ONEWEB-0325","OBJECT_ID":"2021-083J","EPOCH":"2026-04-05T05:19:19.534368","MEAN_MOTION":13.1868666,"ECCENTRICITY":0.0001761,"INCLINATION":87.9227,"RA_OF_ASC_NODE":349.9667,"ARG_OF_PERICENTER":80.856,"MEAN_ANOMALY":279.2771,"EPHEMERIS_TYPE":0,"CLASSIFICATION_TYPE":"U","NORAD_CAT_ID":49194,"ELEMENT_SET_NO":999,"REV_AT_EPOCH":22039,"BSTAR":-0.00058343,"MEAN_MOTION_DOT":-2.17e-06,"MEAN_MOTION_DDOT":0.0},{"OBJECT_NAME":"ONEWEB-0326","OBJECT_ID":"2021-083K","EPOCH":"2026-04-05T05:40:55.016832","MEAN_MOTION":13.18689054,"ECCENTRICITY":0.0001491,"INCLINATION":87.9238,"RA_OF_ASC_NODE":349.9554,"ARG_OF_PERICENTER":85.9734,"MEAN_ANOMALY":274.1569,"EPHEMERIS_TYPE":0,"CLASSIFICATION_TYPE":"U","NORAD_CAT_ID":49195,"ELEMENT_SET_NO":999,"REV_AT_EPOCH":22038,"BSTAR":0.00013851,"MEAN_MOTION_DOT":6.8e-07,"MEAN_MOTION_DDOT":0.0},{"OBJECT_NAME":"ONEWEB-0327","OBJECT_ID":"2021-083L","EPOCH":"2026-04-05T05:40:31.122912","MEAN_MOTION":13.1868707,"ECCENTRICITY":0.0001525,"INCLINATION":87.9231,"RA_OF_ASC_NODE":349.9655,"ARG_OF_PERICENTER":93.6918,"MEAN_ANOMALY":266.4389,"EPHEMERIS_TYPE":0,"CLASSIFICATION_TYPE":"U","NORAD_CAT_ID":49196,"ELEMENT_SET_NO":999,"REV_AT_EPOCH":22040,"BSTAR":0.00010875,"MEAN_MOTION_DOT":5.6e-07,"MEAN_MOTION_DDOT":0.0},{"OBJECT_NAME":"ONEWEB-0328","OBJECT_ID":"2021-083M","EPOCH":"2026-04-05T04:00:37.611936","MEAN_MOTION":13.13470603,"ECCENTRICITY":0.0001692,"INCLINATION":87.9009,"RA_OF_ASC_NODE":334.7428,"ARG_OF_PERICENTER":76.5587,"MEAN_ANOMALY":283.5731,"EPHEMERIS_TYPE":0,"CLASSIFICATION_TYPE":"U","NORAD_CAT_ID":49197,"ELEMENT_SET_NO":999,"REV_AT_EPOCH":22131,"BSTAR":-4.7e-05,"MEAN_MOTION_DOT":-4e-08,"MEAN_MOTION_DDOT":0.0},{"OBJECT_NAME":"ONEWEB-0331","OBJECT_ID":"2021-083N","EPOCH":"2026-04-05T05:31:12.341280","MEAN_MOTION":13.18685499,"ECCENTRICITY":0.0001387,"INCLINATION":87.9236,"RA_OF_ASC_NODE":349.9501,"ARG_OF_PERICENTER":79.1959,"MEAN_ANOMALY":280.933,"EPHEMERIS_TYPE":0,"CLASSIFICATION_TYPE":"U","NORAD_CAT_ID":49198,"ELEMENT_SET_NO":999,"REV_AT_EPOCH":22039,"BSTAR":0.00022706,"MEAN_MOTION_DOT":1.02e-06,"MEAN_MOTION_DDOT":0.0},{"OBJECT_NAME":"ONEWEB-0333","OBJECT_ID":"2021-083P","EPOCH":"2026-04-05T03:53:18.694752","MEAN_MOTION":13.13470388,"ECCENTRICITY":0.0001739,"INCLINATION":87.8989,"RA_OF_ASC_NODE":334.7778,"ARG_OF_PERICENTER":83.0069,"MEAN_ANOMALY":277.1258,"EPHEMERIS_TYPE":0,"CLASSIFICATION_TYPE":"U","NORAD_CAT_ID":49199,"ELEMENT_SET_NO":999,"REV_AT_EPOCH":22132,"BSTAR":-0.00042424,"MEAN_MOTION_DOT":-1.42e-06,"MEAN_MOTION_DDOT":0.0},{"OBJECT_NAME":"ONEWEB-0334","OBJECT_ID":"2021-083Q","EPOCH":"2026-04-05T06:20:53.244960","MEAN_MOTION":13.20772759,"ECCENTRICITY":0.0002728,"INCLINATION":87.9129,"RA_OF_ASC_NODE":289.0103,"ARG_OF_PERICENTER":90.6405,"MEAN_ANOMALY":269.5041,"EPHEMERIS_TYPE":0,"CLASSIFICATION_TYPE":"U","NORAD_CAT_ID":49200,"ELEMENT_SET_NO":999,"REV_AT_EPOCH":22716,"BSTAR":7.3973e-05,"MEAN_MOTION_DOT":4.3e-07,"MEAN_MOTION_DDOT":0.0},{"OBJECT_NAME":"ONEWEB-0335","OBJECT_ID":"2021-083R","EPOCH":"2026-04-05T03:45:59.143392","MEAN_MOTION":13.13470259,"ECCENTRICITY":0.0001534,"INCLINATION":87.8998,"RA_OF_ASC_NODE":334.7743,"ARG_OF_PERICENTER":81.9878,"MEAN_ANOMALY":278.1426,"EPHEMERIS_TYPE":0,"CLASSIFICATION_TYPE":"U","NORAD_CAT_ID":49201,"ELEMENT_SET_NO":999,"REV_AT_EPOCH":22133,"BSTAR":-0.0011964,"MEAN_MOTION_DOT":-4.24e-06,"MEAN_MOTION_DDOT":0.0},{"OBJECT_NAME":"ONEWEB-0336","OBJECT_ID":"2021-083S","EPOCH":"2026-04-05T03:04:33.320352","MEAN_MOTION":13.13468527,"ECCENTRICITY":0.0001314,"INCLINATION":87.8995,"RA_OF_ASC_NODE":334.7767,"ARG_OF_PERICENTER":77.1073,"MEAN_ANOMALY":283.0203,"EPHEMERIS_TYPE":0,"CLASSIFICATION_TYPE":"U","NORAD_CAT_ID":49202,"ELEMENT_SET_NO":999,"REV_AT_EPOCH":22132,"BSTAR":0.00049383,"MEAN_MOTION_DOT":1.93e-06,"MEAN_MOTION_DDOT":0.0},{"OBJECT_NAME":"ONEWEB-0337","OBJECT_ID":"2021-083T","EPOCH":"2026-04-05T03:18:59.577984","MEAN_MOTION":13.13471354,"ECCENTRICITY":0.0001584,"INCLINATION":87.899,"RA_OF_ASC_NODE":334.7826,"ARG_OF_PERICENTER":75.8382,"MEAN_ANOMALY":284.2923,"EPHEMERIS_TYPE":0,"CLASSIFICATION_TYPE":"U","NORAD_CAT_ID":49203,"ELEMENT_SET_NO":999,"REV_AT_EPOCH":22132,"BSTAR":-0.00023413,"MEAN_MOTION_DOT":-7.3e-07,"MEAN_MOTION_DDOT":0.0},{"OBJECT_NAME":"ONEWEB-0338","OBJECT_ID":"2021-083U","EPOCH":"2026-04-05T02:06:20.507040","MEAN_MOTION":13.20772625,"ECCENTRICITY":0.0002093,"INCLINATION":87.913,"RA_OF_ASC_NODE":289.0507,"ARG_OF_PERICENTER":90.1825,"MEAN_ANOMALY":269.9548,"EPHEMERIS_TYPE":0,"CLASSIFICATION_TYPE":"U","NORAD_CAT_ID":49204,"ELEMENT_SET_NO":999,"REV_AT_EPOCH":22716,"BSTAR":0.00013433,"MEAN_MOTION_DOT":6.8e-07,"MEAN_MOTION_DDOT":0.0},{"OBJECT_NAME":"ONEWEB-0339","OBJECT_ID":"2021-083V","EPOCH":"2026-04-05T05:21:03.276576","MEAN_MOTION":13.13468729,"ECCENTRICITY":0.0002014,"INCLINATION":87.9,"RA_OF_ASC_NODE":334.756,"ARG_OF_PERICENTER":78.6203,"MEAN_ANOMALY":281.5152,"EPHEMERIS_TYPE":0,"CLASSIFICATION_TYPE":"U","NORAD_CAT_ID":49205,"ELEMENT_SET_NO":999,"REV_AT_EPOCH":22131,"BSTAR":-0.00057184,"MEAN_MOTION_DOT":-1.96e-06,"MEAN_MOTION_DDOT":0.0},{"OBJECT_NAME":"ONEWEB-0340","OBJECT_ID":"2021-083W","EPOCH":"2026-04-05T05:12:11.912256","MEAN_MOTION":13.18689134,"ECCENTRICITY":0.0001671,"INCLINATION":87.9236,"RA_OF_ASC_NODE":349.9582,"ARG_OF_PERICENTER":80.6538,"MEAN_ANOMALY":279.4783,"EPHEMERIS_TYPE":0,"CLASSIFICATION_TYPE":"U","NORAD_CAT_ID":49206,"ELEMENT_SET_NO":999,"REV_AT_EPOCH":22035,"BSTAR":0.00043083,"MEAN_MOTION_DOT":1.83e-06,"MEAN_MOTION_DDOT":0.0}]